NORAD_CAT_ID,OBJECT_NAME,OBJECT_TYPE,EPOCH,MEAN_MOTION,ECCENTRICITY,INCLINATION,RA_OF_ASC_NODE,ARG_OF_PERICENTER,MEAN_ANOMALY,BSTAR,MEAN_MOTION_DOT,MEAN_MOTION_DDOT,TLE_LINE0,TLE_LINE1,TLE_LINE2,SEMIMAJOR_AXIS,PERIOD,APOGEE,PERIGEE,DECAYED
52852.0,STARLINK-4184,PAYLOAD,2024-04-15 13:47:11,15.08837183,0.0001578,53.2168,255.6388,137.4503,222.6611,9.4432e-06,-1.38e-06,0.0,0 STARLINK-4184,1 52852U 22062Y   24106.57443788 -.00000138  00000-0  94432-5 0  9993,2 52852  53.2168 255.6388 0001578 137.4503 222.6611 15.08837183101286,6917.889,95.438,540.846,538.662,0.0
52852.0,STARLINK-4184,PAYLOAD,2024-04-15 20:08:44,15.0882999,8.93e-05,53.2169,254.4417,101.6983,258.411,-6.1492e-05,-1.266e-05,0.0,0 STARLINK-4184,1 52852U 22062Y   24106.83940341 -.00001266  00000-0 -61492-4 0  9992,2 52852  53.2169 254.4417 0000893 101.6983 258.4110 15.08829990101818,6917.911,95.438,540.394,539.158,0.0
52852.0,STARLINK-4184,PAYLOAD,2024-04-16 13:37:58,15.08837974,9.65e-05,53.218,251.179,101.9509,258.1591,0.00016114,2.278e-05,0.0,0 STARLINK-4184,1 52852U 22062Y   24107.56804117  .00002278  00000-0  16114-3 0  9995,2 52852  53.2180 251.1790 0000965 101.9509 258.1591 15.08837974101929,6917.887,95.438,540.419,539.084,0.0
52852.0,STARLINK-4184,PAYLOAD,2024-04-16 16:48:44,15.08842261,9.29e-05,53.2171,250.5851,105.2551,254.8544,0.00022058,3.225e-05,0.0,0 STARLINK-4184,1 52852U 22062Y   24107.70051885  .00003225  00000-0  22058-3 0  9994,2 52852  53.2171 250.5851 0000929 105.2551 254.8544 15.08842261101458,6917.873,95.437,540.381,539.096,0.0
52852.0,STARLINK-4184,PAYLOAD,2024-04-17 15:04:09,15.0883744,8.72e-05,53.2154,246.4202,115.0175,245.0908,0.00016023,2.263e-05,0.0,0 STARLINK-4184,1 52852U 22062Y   24108.62788267  .00002263  00000-0  16023-3 0  9993,2 52852  53.2154 246.4202 0000872 115.0175 245.0908 15.08837440101595,6917.888,95.438,540.356,539.15,0.0
52852.0,STARLINK-4184,PAYLOAD,2024-04-17 16:39:32,15.08832006,0.0001008,53.216,246.1208,104.9574,255.153,5.5262e-05,5.92e-06,0.0,0 STARLINK-4184,1 52852U 22062Y   24108.69412549  .00000592  00000-0  55262-4 0  9999,2 52852  53.2160 246.1208 0001008 104.9574 255.1530 15.08832006102099,6917.905,95.438,540.467,539.072,0.0
52852.0,STARLINK-4184,PAYLOAD,2024-04-18 13:19:33,15.08832179,0.0001036,53.2163,242.2536,104.4522,255.6585,4.3465e-06,-2.19e-06,0.0,0 STARLINK-4184,1 52852U 22062Y   24109.55524898 -.00000219  00000-0  43465-5 0  9996,2 52852  53.2163 242.2536 0001036 104.4522 255.6585 15.08832179101738,6917.904,95.438,540.486,539.053,0.0
52852.0,STARLINK-4184,PAYLOAD,2024-04-18 16:30:18,15.08858339,0.0001132,53.2185,241.6571,70.5869,289.5245,1.9637e-05,2.5e-07,0.0,0 STARLINK-4184,1 52852U 22062Y   24109.68771775  .00000025  00000-0  19637-4 0  9995,2 52852  53.2185 241.6571 0001132  70.5869 289.5245 15.08858339102240,6917.824,95.436,540.472,538.906,0.0
52852.0,STARLINK-4184,PAYLOAD,2024-04-19 13:10:20,15.08836725,0.0001184,53.2176,237.7941,103.7012,256.4112,0.00016899,2.402e-05,0.0,0 STARLINK-4184,1 52852U 22062Y   24110.54884762  .00002402  00000-0  16899-3 0  9990,2 52852  53.2176 237.7941 0001184 103.7012 256.4112 15.08836725102378,6917.89,95.438,540.574,538.936,0.0
52852.0,STARLINK-4184,PAYLOAD,2024-04-19 14:45:43,15.08834041,0.0001407,53.2176,237.4962,104.2287,255.8862,0.00014412,2.006e-05,0.0,0 STARLINK-4184,1 52852U 22062Y   24110.61509008  .00002006  00000-0  14412-3 0  9994,2 52852  53.2176 237.4962 0001407 104.2287 255.8862 15.08834041101896,6917.899,95.438,540.737,538.79,0.0
52852.0,STARLINK-4184,PAYLOAD,2024-04-19 17:56:29,15.08842415,0.0001764,53.2184,236.8967,131.4313,228.6831,0.000223,3.263e-05,0.0,0 STARLINK-4184,1 52852U 22062Y   24110.74756222  .00003263  00000-0  22300-3 0  9991,2 52852  53.2184 236.8967 0001764 131.4313 228.6831 15.08842415102407,6917.873,95.437,540.958,538.518,0.0
52852.0,STARLINK-4184,PAYLOAD,2024-04-20 13:01:03,15.08900001,0.0001613,53.2178,233.3295,85.4324,274.6852,0.00064868,0.00010068,0.0,0 STARLINK-4184,1 52852U 22062Y   24111.54240447  .00010068  00000-0  64868-3 0  9993,2 52852  53.2178 233.3295 0001613  85.4324 274.6852 15.08900001102522,6917.697,95.434,540.678,538.446,0.0
52852.0,STARLINK-4184,PAYLOAD,2024-04-20 14:36:29,15.08840769,0.000238,53.2178,233.0327,48.3255,311.794,-0.00021098,-3.645e-05,0.0,0 STARLINK-4184,1 52852U 22062Y   24111.60867452 -.00003645  00000-0 -21098-3 0  9994,2 52852  53.2178 233.0327 0002380  48.3255 311.7940 15.08840769102040,6917.878,95.438,541.389,538.097,0.0
52852.0,STARLINK-4184,PAYLOAD,2024-04-20 17:47:16,15.08819456,0.0001515,53.2173,232.4412,87.0834,273.0332,-0.00048246,-7.954e-05,0.0,0 STARLINK-4184,1 52852U 22062Y   24111.74116332 -.00007954  00000-0 -48246-3 0  9994,2 52852  53.2173 232.4412 0001515  87.0834 273.0332 15.08819456102555,6917.943,95.439,540.856,538.76,0.0
52852.0,STARLINK-4184,PAYLOAD,2024-04-21 14:27:17,15.08827848,0.0001868,53.2179,228.5713,115.5482,244.5703,-0.00014139,-2.537e-05,0.0,0 STARLINK-4184,1 52852U 22062Y   24112.60228263 -.00002537  00000-0 -14139-3 0  9993,2 52852  53.2179 228.5713 0001868 115.5482 244.5703 15.08827848102197,6917.918,95.438,541.075,538.49,0.0
52852.0,STARLINK-4184,PAYLOAD,2024-04-21 17:38:02,15.08842707,0.0001431,53.2166,227.9774,118.8734,241.2402,-4.1209e-05,-9.44e-06,0.0,0 STARLINK-4184,1 52852U 22062Y   24112.73475674 -.00000944  00000-0 -41209-4 0  9996,2 52852  53.2166 227.9774 0001431 118.8734 241.2402 15.08842707102703,6917.872,95.437,540.727,538.747,0.0
52852.0,STARLINK-4184,PAYLOAD,2024-04-22 11:07:18,15.08825531,0.0002231,53.2167,224.7047,126.0277,234.0922,3.5906e-05,2.83e-06,0.0,0 STARLINK-4184,1 52852U 22062Y   24113.46340541  .00000283  00000-0  35906-4 0  9992,2 52852  53.2167 224.7047 0002231 126.0277 234.0922 15.08825531102819,6917.925,95.438,541.333,538.246,0.0
52852.0,STARLINK-4184,PAYLOAD,2024-04-22 14:18:04,15.08820921,0.0001761,53.2166,224.1116,119.8278,240.289,2.0345e-05,3.6e-07,0.0,0 STARLINK-4184,1 52852U 22062Y   24113.59588958  .00000036  00000-0  20345-4 0  9999,2 52852  53.2166 224.1116 0001761 119.8278 240.2890 15.08820921102346,6917.939,95.439,541.022,538.585,0.0
52852.0,STARLINK-4184,PAYLOAD,2024-04-23 12:33:29,15.08830805,0.000141,53.2173,219.9553,115.8458,244.268,7.6191e-05,9.25e-06,0.0,0 STARLINK-4184,1 52852U 22062Y   24114.52325620  .00000925  00000-0  76191-4 0  9995,2 52852  53.2173 219.9553 0001410 115.8458 244.2680 15.08830805102970,6917.908,95.438,540.749,538.798,0.0
52852.0,STARLINK-4184,PAYLOAD,2024-04-24 12:24:17,15.08821116,0.0001166,53.2163,215.4917,92.7217,267.3909,0.00040512,6.162e-05,0.0,0 STARLINK-4184,1 52852U 22062Y   24115.51686725  .00006162  00000-0  40512-3 0  9997,2 52852  53.2163 215.4917 0001166  92.7217 267.3909 15.08821116103121,6917.938,95.439,540.61,538.996,0.0
52852.0,STARLINK-4184,PAYLOAD,2024-04-24 13:59:40,15.08824315,0.0001232,53.2164,215.1943,97.4368,262.6764,0.00036306,5.492e-05,0.0,0 STARLINK-4184,1 52852U 22062Y   24115.58310608  .00005492  00000-0  36306-3 0  9999,2 52852  53.2164 215.1943 0001232  97.4368 262.6764 15.08824315102648,6917.928,95.439,540.646,538.941,0.0
52852.0,STARLINK-4184,PAYLOAD,2024-04-25 12:15:03,15.0883871,0.0001359,53.2167,211.0295,95.3516,264.7632,0.00012316,1.673e-05,0.0,0 STARLINK-4184,1 52852U 22062Y   24116.51046155  .00001673  00000-0  12316-3 0  9998,2 52852  53.2167 211.0295 0001359  95.3516 264.7632 15.08838710103279,6917.884,95.438,540.689,538.809,0.0
52852.0,STARLINK-4184,PAYLOAD,2024-04-26 13:41:13,15.08846966,0.0001544,53.217,206.2732,91.9113,268.2056,0.000232,3.407e-05,0.0,0 STARLINK-4184,1 52852U 22062Y   24117.57029933  .00003407  00000-0  23200-3 0  9991,2 52852  53.2170 206.2732 0001544  91.9113 268.2056 15.08846966102940,6917.859,95.437,540.792,538.656,0.0
52852.0,STARLINK-4184,PAYLOAD,2024-04-27 05:35:05,15.08837526,0.0001552,53.2161,203.3005,94.1944,265.9226,6.9569e-06,-1.77e-06,0.0,0 STARLINK-4184,1 52852U 22062Y   24118.23270057 -.00000177  00000-0  69569-5 0  9992,2 52852  53.2161 203.3005 0001552  94.1944 265.9226 15.08837526103538,6917.888,95.438,540.827,538.679,0.0
52852.0,STARLINK-4184,PAYLOAD,2024-04-27 11:56:37,15.08841957,0.0001218,53.2149,202.1101,100.419,259.6939,7.2005e-05,8.58e-06,0.0,0 STARLINK-4184,1 52852U 22062Y   24118.49765711  .00000858  00000-0  72005-4 0  9999,2 52852  53.2149 202.1101 0001218 100.4190 259.6939 15.08841957103085,6917.874,95.437,540.582,538.897,0.0
52852.0,STARLINK-4184,PAYLOAD,2024-04-28 11:47:24,15.08828126,0.0001663,53.2166,197.6495,90.6225,269.4957,-0.00027265,-4.623e-05,0.0,0 STARLINK-4184,1 52852U 22062Y   24119.49126134 -.00004623  00000-0 -27265-3 0  9993,2 52852  53.2166 197.6495 0001663  90.6225 269.4957 15.08828126103724,6917.917,95.438,540.932,538.631,0.0
52852.0,STARLINK-4184,PAYLOAD,2024-04-28 14:58:11,15.08829448,0.0001552,53.2162,197.0534,89.0966,271.0204,-0.00014886,-2.656e-05,0.0,0 STARLINK-4184,1 52852U 22062Y   24119.62374151 -.00002656  00000-0 -14886-3 0  9991,2 52852  53.2162 197.0534 0001552  89.0966 271.0204 15.08829448103259,6917.913,95.438,540.851,538.704,0.0
52852.0,STARLINK-4184,PAYLOAD,2024-04-29 11:38:12,15.08838612,0.0001637,53.215,193.1892,84.8081,275.3098,0.00069019,0.00010713,0.0,0 STARLINK-4184,1 52852U 22062Y   24120.48486766  .00010713  00000-0  69019-3 0  9992,2 52852  53.2150 193.1892 0001637  84.8081 275.3098 15.08838612103874,6917.885,95.438,540.882,538.617,0.0
52852.0,STARLINK-4184,PAYLOAD,2024-04-30 11:28:59,15.08848641,0.000147,53.2153,188.7271,78.964,281.1518,0.0002951,4.413e-05,0.0,0 STARLINK-4184,1 52852U 22062Y   24121.47846361  .00004413  00000-0  29510-3 0  9995,2 52852  53.2153 188.7271 0001470  78.9640 281.1518 15.08848641104021,6917.854,95.437,540.736,538.702,0.0
52852.0,STARLINK-4184,PAYLOAD,2024-04-30 21:01:17,15.08856536,0.000143,53.2155,186.9429,78.3002,281.8151,0.00044414,6.791e-05,0.0,0 STARLINK-4184,1 52852U 22062Y   24121.87589981  .00006791  00000-0  44414-3 0  9992,2 52852  53.2155 186.9429 0001430  78.3002 281.8151 15.08856536103593,6917.83,95.437,540.684,538.706,0.0
